[{"OBJECT_NAME":"ICEYE-X4","OBJECT_ID":"2019-038D","EPOCH":"2026-03-09T23:53:58.416000","MEAN_MOTION":15.26985132,"ECCENTRICITY":0.00122769,"INCLINATION":97.8888,"RA_OF_ASC_NODE":96.1923,"ARG_OF_PERICENTER":293.9914,"MEAN_ANOMALY":66.0038,"EPHEMERIS_TYPE":0,"CLASSIFICATION_TYPE":"U","NORAD_CAT_ID":44390,"ELEMENT_SET_NO":999,"REV_AT_EPOCH":36665,"BSTAR":0.00049915294,"MEAN_MOTION_DOT":0.00013179,"MEAN_MOTION_DDOT":0},{"OBJECT_NAME":"STARLINK-35675","OBJECT_ID":"2025-303AB","EPOCH":"2026-03-09T01:25:30.854496","MEAN_MOTION":15.27571478,"ECCENTRICITY":0.00016039,"INCLINATION":42.9996,"RA_OF_ASC_NODE":314.7172,"ARG_OF_PERICENTER":272.1324,"MEAN_ANOMALY":87.9344,"EPHEMERIS_TYPE":0,"CLASSIFICATION_TYPE":"U","NORAD_CAT_ID":67188,"ELEMENT_SET_NO":999,"REV_AT_EPOCH":1263,"BSTAR":0.00098100462,"MEAN_MOTION_DOT":0.00026824,"MEAN_MOTION_DDOT":0}]
